start=new Date('2021-10-05T00:00:00.000Z').valueOf();
sats=[{"ECCENTRICITY":"0.00019900","LAUNCH_DATE":"2020-06-04","PERIAPSIS":"545.841","TIME_SYSTEM":"UTC","APOAPSIS":"548.597","SEMIMAJOR_AXIS":"6925.354","RCS_SIZE":"LARGE","OBJECT_TYPE":"PAYLOAD","MEAN_MOTION_DDOT":"0.0000000000000","MEAN_MOTION":"15.06398321","ARG_OF_PERICENTER":"84.4724","CLASSIFICATION_TYPE":"U","RA_OF_ASC_NODE":"124.8201","REF_FRAME":"TEME","GP_ID":"186223843","MEAN_MOTION_DOT":"-0.00000271","NORAD_CAT_ID":"45674","TLE_LINE2":"2 45674  53.0543 124.8201 0001990  84.4724 275.6492 15.06398321 75010","PERIOD":"95.592","MEAN_ELEMENT_THEORY":"SGP4","REV_AT_EPOCH":"7501","MEAN_ANOMALY":"275.6492","DECAY_DATE":null,"OBJECT_NAME":"STARLINK-1457","EPOCH":"2021-10-04T20:49:27.426720","COUNTRY_CODE":"US","FILE":"3144803","BSTAR":"0.00000070133000","TLE_LINE1":"1 45674U 20035T   21277.86767855 -.00000271  00000-0  70133-6 0  9998","EPHEMERIS_TYPE":"0","SITE":"AFETR","OBJECT_ID":"2020-035T","INCLINATION":"53.0543","ELEMENT_SET_NO":"999","CENTER_NAME":"EARTH"},{"MEAN_MOTION":"15.06384376","ARG_OF_PERICENTER":"83.5976","CLASSIFICATION_TYPE":"U","RA_OF_ASC_NODE":"124.8767","REF_FRAME":"TEME","OBJECT_TYPE":"PAYLOAD","MEAN_MOTION_DDOT":"0.0000000000000","MEAN_ELEMENT_THEORY":"SGP4","REV_AT_EPOCH":"7500","GP_ID":"186224095","MEAN_MOTION_DOT":"-0.00000353","NORAD_CAT_ID":"45675","TLE_LINE2":"2 45675  53.0543 124.8767 0001697  83.5976 276.5206 15.06384376 75008","PERIOD":"95.593","TIME_SYSTEM":"UTC","APOAPSIS":"548.437","LAUNCH_DATE":"2020-06-04","PERIAPSIS":"546.086","ECCENTRICITY":"0.00016970","RCS_SIZE":"LARGE","SEMIMAJOR_AXIS":"6925.396","SITE":"AFETR","EPHEMERIS_TYPE":"0","OBJECT_ID":"2020-035U","INCLINATION":"53.0543","TLE_LINE1":"1 45675U 20035U   21277.85662564 -.00000353  00000-0 -47939-5 0  9998","CENTER_NAME":"EARTH","ELEMENT_SET_NO":"999","EPOCH":"2021-10-04T20:33:32.455296","MEAN_ANOMALY":"276.5206","OBJECT_NAME":"STARLINK-1458","DECAY_DATE":null,"FILE":"3144803","BSTAR":"-0.00000479390000","COUNTRY_CODE":"US"},{"CENTER_NAME":"EARTH","ELEMENT_SET_NO":"999","OBJECT_ID":"2020-035V","INCLINATION":"53.0528","EPHEMERIS_TYPE":"0","SITE":"AFETR","TLE_LINE1":"1 45676U 20035V   21277.69443515  .00001513  00000-0  12045-3 0  9999","BSTAR":"0.00012045000000","FILE":"3144803","COUNTRY_CODE":"US","EPOCH":"2021-10-04T16:39:59.196960","OBJECT_NAME":"STARLINK-1460","DECAY_DATE":null,"MEAN_ANOMALY":"273.6268","MEAN_ELEMENT_THEORY":"SGP4","REV_AT_EPOCH":"7497","NORAD_CAT_ID":"45676","PERIOD":"95.592","TLE_LINE2":"2 45676  53.0528 125.5934 0002060  86.4956 273.6268 15.06396261 74978","GP_ID":"186224842","MEAN_MOTION_DOT":"0.00001513","RA_OF_ASC_NODE":"125.5934","REF_FRAME":"TEME","ARG_OF_PERICENTER":"86.4956","MEAN_MOTION":"15.06396261","CLASSIFICATION_TYPE":"U","MEAN_MOTION_DDOT":"0.0000000000000","OBJECT_TYPE":"PAYLOAD","RCS_SIZE":"LARGE","SEMIMAJOR_AXIS":"6925.360","APOAPSIS":"548.652","TIME_SYSTEM":"UTC","LAUNCH_DATE":"2020-06-04","ECCENTRICITY":"0.00020600","PERIAPSIS":"545.798"},{"GP_ID":"186223593","MEAN_MOTION_DOT":"0.00000610","NORAD_CAT_ID":"45677","PERIOD":"95.592","TLE_LINE2":"2 45677  53.0538 124.9535 0002044  87.0244 273.0979 15.06396761 75035","MEAN_ELEMENT_THEORY":"SGP4","REV_AT_EPOCH":"7503","OBJECT_TYPE":"PAYLOAD","MEAN_MOTION_DDOT":"0.0000000000000","MEAN_MOTION":"15.06396761","ARG_OF_PERICENTER":"87.0244","CLASSIFICATION_TYPE":"U","RA_OF_ASC_NODE":"124.9535","REF_FRAME":"TEME","SEMIMAJOR_AXIS":"6925.358","RCS_SIZE":"LARGE","LAUNCH_DATE":"2020-06-04","ECCENTRICITY":"0.00020440","PERIAPSIS":"545.808","TIME_SYSTEM":"UTC","APOAPSIS":"548.639","ELEMENT_SET_NO":"999","CENTER_NAME":"EARTH","TLE_LINE1":"1 45677U 20035W   21277.83819107  .00000610  00000-0  59832-4 0  9993","SITE":"AFETR","EPHEMERIS_TYPE":"0","OBJECT_ID":"2020-035W","INCLINATION":"53.0538","COUNTRY_CODE":"US","FILE":"3144803","BSTAR":"0.00005983200000","MEAN_ANOMALY":"273.0979","OBJECT_NAME":"STARLINK-1392","DECAY_DATE":null,"EPOCH":"2021-10-04T20:06:59.708448"},{"CENTER_NAME":"EARTH","ELEMENT_SET_NO":"999","OBJECT_ID":"2020-035X","INCLINATION":"53.0545","EPHEMERIS_TYPE":"0","SITE":"AFETR","TLE_LINE1":"1 45678U 20035X   21277.83174880 -.00000426  00000-0 -97139-5 0  9996","BSTAR":"-0.00000971390000","FILE":"3144803","COUNTRY_CODE":"US","EPOCH":"2021-10-04T19:57:43.096320","OBJECT_NAME":"STARLINK-1393","DECAY_DATE":null,"MEAN_ANOMALY":"279.1347","MEAN_ELEMENT_THEORY":"SGP4","REV_AT_EPOCH":"7515","NORAD_CAT_ID":"45678","PERIOD":"95.593","TLE_LINE2":"2 45678  53.0545 114.9808 0001962  80.9864 279.1347 15.06391195 75159","GP_ID":"186223344","MEAN_MOTION_DOT":"-0.00000426","RA_OF_ASC_NODE":"114.9808","REF_FRAME":"TEME","MEAN_MOTION":"15.06391195","ARG_OF_PERICENTER":"80.9864","CLASSIFICATION_TYPE":"U","MEAN_MOTION_DDOT":"0.0000000000000","OBJECT_TYPE":"PAYLOAD","RCS_SIZE":"LARGE","SEMIMAJOR_AXIS":"6925.376","APOAPSIS":"548.599","TIME_SYSTEM":"UTC","PERIAPSIS":"545.882","LAUNCH_DATE":"2020-06-04","ECCENTRICITY":"0.00019620"},{"TLE_LINE1":"1 45679U 20035Y   21277.83543290  .00000168  00000-0  30212-4 0  9991","INCLINATION":"53.0542","OBJECT_ID":"2020-035Y","EPHEMERIS_TYPE":"0","SITE":"AFETR","ELEMENT_SET_NO":"999","CENTER_NAME":"EARTH","OBJECT_NAME":"STARLINK-1394","DECAY_DATE":null,"MEAN_ANOMALY":"274.0317","EPOCH":"2021-10-04T20:03:01.402560","COUNTRY_CODE":"US","BSTAR":"0.00003021200000","FILE":"3144803","MEAN_MOTION_DDOT":"0.0000000000000","OBJECT_TYPE":"PAYLOAD","REF_FRAME":"TEME","RA_OF_ASC_NODE":"114.9638","CLASSIFICATION_TYPE":"U","MEAN_MOTION":"15.06396223","ARG_OF_PERICENTER":"86.0880","PERIOD":"95.592","TLE_LINE2":"2 45679  53.0542 114.9638 0001821  86.0880 274.0317 15.06396223 75177","NORAD_CAT_ID":"45679","MEAN_MOTION_DOT":"0.00000168","GP_ID":"186224595","MEAN_ELEMENT_THEORY":"SGP4","REV_AT_EPOCH":"7517","LAUNCH_DATE":"2020-06-04","ECCENTRICITY":"0.00018210","PERIAPSIS":"545.964","APOAPSIS":"548.486","TIME_SYSTEM":"UTC","SEMIMAJOR_AXIS":"6925.360","RCS_SIZE":"LARGE"},{"MEAN_ELEMENT_THEORY":"SGP4","REV_AT_EPOCH":"7516","GP_ID":"186224343","MEAN_MOTION_DOT":"-0.00000804","NORAD_CAT_ID":"45680","TLE_LINE2":"2 45680  53.0535 114.9340 0002023  88.3031 271.8190 15.06397399 75167","PERIOD":"95.592","MEAN_MOTION":"15.06397399","ARG_OF_PERICENTER":"88.3031","CLASSIFICATION_TYPE":"U","RA_OF_ASC_NODE":"114.9340","REF_FRAME":"TEME","OBJECT_TYPE":"PAYLOAD","MEAN_MOTION_DDOT":"0.0000000000000","RCS_SIZE":"LARGE","SEMIMAJOR_AXIS":"6925.357","TIME_SYSTEM":"UTC","APOAPSIS":"548.623","LAUNCH_DATE":"2020-06-04","PERIAPSIS":"545.821","ECCENTRICITY":"0.00020230","CENTER_NAME":"EARTH","ELEMENT_SET_NO":"999","EPHEMERIS_TYPE":"0","SITE":"AFETR","OBJECT_ID":"2020-035Z","INCLINATION":"53.0535","TLE_LINE1":"1 45680U 20035Z   21277.84279640 -.00000804  00000-0 -35075-4 0  9990","FILE":"3144803","BSTAR":"-0.00003507500000","COUNTRY_CODE":"US","EPOCH":"2021-10-04T20:13:37.608960","MEAN_ANOMALY":"271.8190","OBJECT_NAME":"STARLINK-1395","DECAY_DATE":null},{"PERIAPSIS":"545.872","LAUNCH_DATE":"2020-06-04","ECCENTRICITY":"0.00019780","TIME_SYSTEM":"UTC","APOAPSIS":"548.612","SEMIMAJOR_AXIS":"6925.377","RCS_SIZE":"LARGE","OBJECT_TYPE":"PAYLOAD","MEAN_MOTION_DDOT":"0.0000000000000","ARG_OF_PERICENTER":"90.0921","MEAN_MOTION":"15.06390709","CLASSIFICATION_TYPE":"U","RA_OF_ASC_NODE":"114.9464","REF_FRAME":"TEME","GP_ID":"186223094","MEAN_MOTION_DOT":"-0.00000765","NORAD_CAT_ID":"45681","TLE_LINE2":"2 45681  53.0525 114.9464 0001978  90.0921 270.0294 15.06390709 75175","PERIOD":"95.593","MEAN_ELEMENT_THEORY":"SGP4","REV_AT_EPOCH":"7517","MEAN_ANOMALY":"270.0294","DECAY_DATE":null,"OBJECT_NAME":"STARLINK-1396","EPOCH":"2021-10-04T20:08:20.095008","COUNTRY_CODE":"US","FILE":"3144803","BSTAR":"-0.00003247700000","TLE_LINE1":"1 45681U 20035AA  21277.83912147 -.00000765  00000-0 -32477-4 0  9995","EPHEMERIS_TYPE":"0","SITE":"AFETR","OBJECT_ID":"2020-035AA","INCLINATION":"53.0525","ELEMENT_SET_NO":"999","CENTER_NAME":"EARTH"},{"OBJECT_TYPE":"PAYLOAD","MEAN_MOTION_DDOT":"0.0000000000000","ARG_OF_PERICENTER":"84.7494","MEAN_MOTION":"15.06383890","CLASSIFICATION_TYPE":"U","RA_OF_ASC_NODE":"114.9192","REF_FRAME":"TEME","GP_ID":"186223844","MEAN_MOTION_DOT":"-0.00000664","NORAD_CAT_ID":"45682","PERIOD":"95.593","TLE_LINE2":"2 45682  53.0547 114.9192 0002004  84.7494 275.3724 15.06383890 75162","MEAN_ELEMENT_THEORY":"SGP4","REV_AT_EPOCH":"7516","LAUNCH_DATE":"2020-06-04","ECCENTRICITY":"0.00020040","PERIAPSIS":"545.875","TIME_SYSTEM":"UTC","APOAPSIS":"548.651","SEMIMAJOR_AXIS":"6925.398","RCS_SIZE":"LARGE","TLE_LINE1":"1 45682U 20035AB  21277.84649248 -.00000664  00000-0 -25691-4 0  9994","EPHEMERIS_TYPE":"0","SITE":"AFETR","OBJECT_ID":"2020-035AB","INCLINATION":"53.0547","ELEMENT_SET_NO":"999","CENTER_NAME":"EARTH","MEAN_ANOMALY":"275.3724","OBJECT_NAME":"STARLINK-1397","DECAY_DATE":null,"EPOCH":"2021-10-04T20:18:56.950272","COUNTRY_CODE":"US","FILE":"3144803","BSTAR":"-0.00002569100000"},{"COUNTRY_CODE":"US","BSTAR":"-0.00000250930000","FILE":"3144803","OBJECT_NAME":"STARLINK-1399","DECAY_DATE":null,"MEAN_ANOMALY":"272.5280","EPOCH":"2021-10-04T19:52:24.214656","ELEMENT_SET_NO":"999","CENTER_NAME":"EARTH","TLE_LINE1":"1 45683U 20035AC  21277.82805804 -.00000319  00000-0 -25093-5 0  9999","INCLINATION":"53.0544","OBJECT_ID":"2020-035AC","SITE":"AFETR","EPHEMERIS_TYPE":"0","SEMIMAJOR_AXIS":"6925.361","RCS_SIZE":"LARGE","LAUNCH_DATE":"2020-06-04","ECCENTRICITY":"0.00022420","PERIAPSIS":"545.673","APOAPSIS":"548.778","TIME_SYSTEM":"UTC","TLE_LINE2":"2 45683  53.0544 114.9969 0002242  87.5965 272.5280 15.06396075 75176","PERIOD":"95.592","NORAD_CAT_ID":"45683","MEAN_MOTION_DOT":"-0.00000319","GP_ID":"186224096","MEAN_ELEMENT_THEORY":"SGP4","REV_AT_EPOCH":"7517","MEAN_MOTION_DDOT":"0.0000000000000","OBJECT_TYPE":"PAYLOAD","REF_FRAME":"TEME","RA_OF_ASC_NODE":"114.9969","CLASSIFICATION_TYPE":"U","ARG_OF_PERICENTER":"87.5965","MEAN_MOTION":"15.06396075"}];
